GLOBALSTAR M024         
1 25883U 99043A   25088.32343045 -.00000063  00000+0  52317-4 0  9999
2 25883  51.9995 200.8228 0000794 333.8986  56.8180 11.10162076105995
GLOBALSTAR M027         
1 25884U 99043B   25088.21146783 -.00000050  00000+0  50415-3 0  9990
2 25884  52.0200 276.7943 0020977 220.4685 139.4548 11.04371606132401
GLOBALSTAR M054         
1 25885U 99043C   25088.39370250 -.00000089  00000+0 -45501-3 0  9991
2 25885  52.0147  57.0729 0006245  37.3399 126.6148 11.39211429109955
GLOBALSTAR M053         
1 25886U 99043D   25088.23174378 -.00000055  00000+0  38366-3 0  9991
2 25886  52.0025   0.1226 0003094 314.5681 209.3048 11.27663827110427
GLOBALSTAR M058         
1 25907U 99049A   25088.14051833 -.00000099  00000+0 -19984-3 0  9995
2 25907  51.9959 322.9227 0002720 107.5587 252.5545 11.93195838531986
GLOBALSTAR M050         
1 25908U 99049B   25088.10253718  .00000065  00000+0  17328-2 0  9998
2 25908  52.0020 336.6822 0008425 229.8501 278.6184 12.07451792138513
GLOBALSTAR M033         
1 25909U 99049C   25088.07876357 -.00000060  00000+0  30395-3 0  9991
2 25909  51.9900 214.1100 0014183  99.6777 260.5673 12.20287970525966
GLOBALSTAR M055         
1 25910U 99049D   25088.33842869 -.00000087  00000+0  60603-4 0  9998
2 25910  52.0007 228.0157 0006342 329.9207  30.1280 12.29424231158463
